{
  "norad_id": 62020,
  "name": "STARLINK-11378 [DTC]",
  "history": [
    {
      "epoch": "2026-03-28T21:05:05.649504",
      "apogee_km": 360.12612514358807,
      "perigee_km": 359.17380633385073,
      "latitude_deg": 53.13617855184784,
      "longitude_deg": 106.33961055986583,
      "semi_major_axis_km": 6737.786965738719,
      "eccentricity": 7.067e-05,
      "inclination_deg": 53.1571,
      "raan_deg": 306.3254,
      "arg_perigee_deg": 55.5844,
      "mean_anomaly_deg": 304.5241,
      "mean_motion_rev_day": 15.69736833
    },
    {
      "epoch": "2026-03-29T00:08:27.765024",
      "apogee_km": 360.1288624086801,
      "perigee_km": 359.12493558772894,
      "latitude_deg": -22.573077623748105,
      "longitude_deg": 118.56418335996568,
      "semi_major_axis_km": 6737.763898998204,
      "eccentricity": 7.45e-05,
      "inclination_deg": 53.1569,
      "raan_deg": 305.6972,
      "arg_perigee_deg": 50.2313,
      "mean_anomaly_deg": 309.877,
      "mean_motion_rev_day": 15.69744894
    }
  ]
}